[{"OBJECT_NAME":"STEP CUBE LAB-II","OBJECT_ID":"2022-065D","EPOCH":"2026-03-09T21:53:04.022304","MEAN_MOTION":14.63120511,"ECCENTRICITY":0.00081203,"INCLINATION":98.2053,"RA_OF_ASC_NODE":213.2152,"ARG_OF_PERICENTER":344.1456,"MEAN_ANOMALY":15.9491,"EPHEMERIS_TYPE":0,"CLASSIFICATION_TYPE":"U","NORAD_CAT_ID":52897,"ELEMENT_SET_NO":999,"REV_AT_EPOCH":19698,"BSTAR":0.00036922387,"MEAN_MOTION_DOT":1.85e-5,"MEAN_MOTION_DDOT":0},{"OBJECT_NAME":"UNKNOWN","OBJECT_ID":"","EPOCH":"2026-03-05T14:39:25.302528","MEAN_MOTION":14.62938422,"ECCENTRICITY":0.00096961,"INCLINATION":32.2213,"RA_OF_ASC_NODE":179.9049,"ARG_OF_PERICENTER":55.522,"MEAN_ANOMALY":304.6342,"EPHEMERIS_TYPE":0,"CLASSIFICATION_TYPE":"U","NORAD_CAT_ID":270066,"ELEMENT_SET_NO":999,"REV_AT_EPOCH":33533,"BSTAR":0.000147935,"MEAN_MOTION_DOT":8.06e-6,"MEAN_MOTION_DDOT":0}]
